[{"OBJECT_NAME":"NUSAT-50 (NANCY ROMAN)","OBJECT_ID":"2024-149AB","EPOCH":"2026-03-09T19:15:16.765632","MEAN_MOTION":15.29713355,"ECCENTRICITY":0.00025229,"INCLINATION":97.3817,"RA_OF_ASC_NODE":150.7693,"ARG_OF_PERICENTER":238.0469,"MEAN_ANOMALY":122.0527,"EPHEMERIS_TYPE":0,"CLASSIFICATION_TYPE":"U","NORAD_CAT_ID":60493,"ELEMENT_SET_NO":999,"REV_AT_EPOCH":8693,"BSTAR":0.0004225155,"MEAN_MOTION_DOT":0.00012094,"MEAN_MOTION_DDOT":0},{"OBJECT_NAME":"STARLINK-34625","OBJECT_ID":"2025-240J","EPOCH":"2026-03-09T06:36:09.397728","MEAN_MOTION":15.30195583,"ECCENTRICITY":0.00011491,"INCLINATION":53.159,"RA_OF_ASC_NODE":64.8322,"ARG_OF_PERICENTER":73.3592,"MEAN_ANOMALY":286.7535,"EPHEMERIS_TYPE":0,"CLASSIFICATION_TYPE":"U","NORAD_CAT_ID":66154,"ELEMENT_SET_NO":999,"REV_AT_EPOCH":2197,"BSTAR":0.00096644027,"MEAN_MOTION_DOT":0.00028369,"MEAN_MOTION_DDOT":0}]
